0 SCOUT A R/B
1 03137U 68012B   13282.52901808  .00000230  00000-0  34187-3 0  8495
2 03137 089.9496 280.7652 0077591 138.5054 335.6803 13.49565318244166
0 SCOUT A R/B
1 03137U 68012B   13287.12926656  .00000207  00000-0  30638-3 0  8518
2 03137 089.9496 280.7417 0077815 125.5207 005.3972 13.49567370244786
0 SCOUT A R/B
1 03137U 68012B   13289.13154036  .00000201  00000-0  29603-3 0  8521
2 03137 089.9499 280.7313 0077875 119.8937 013.1741 13.49568421245056
0 SCOUT A R/B
1 03137U 68012B   13291.13384238  .00000185  00000-0  27173-3 0  8535
2 03137 089.9503 280.7208 0077936 114.2497 021.1117 13.49568886245324
0 SCOUT A R/B
1 03137U 68012B   13293.13611706  .00000114  00000-0  16163-3 0  8540
2 03137 089.9506 280.7104 0077951 108.6201 028.9026 13.49568628245596
0 SCOUT A R/B
1 03137U 68012B   13295.13668341  .00000005  00000-0 -89449-5 0  8559
2 03137 089.9508 280.7003 0077995 103.1229 028.2627 13.49568014245863
